CCSDS_OMM_VERS = 2.0
CREATION_DATE  = 
ORIGINATOR     = 

OBJECT_NAME    = HULIANWANG DIGUI-122
OBJECT_ID      = 2025-295D
CENTER_NAME    = EARTH
REF_FRAME      = TEME
TIME_SYSTEM    = UTC
MEAN_ELEMENT_THEORY = SGP/SGP4

EPOCH          = 2025-12-24T16:31:18.472800
MEAN_MOTION    = 14.25758016
ECCENTRICITY   = .00131642
INCLINATION    = 50.0052
RA_OF_ASC_NODE = 321.7830
ARG_OF_PERICENTER = 295.5417
MEAN_ANOMALY   = 64.4135

EPHEMERIS_TYPE = 0
CLASSIFICATION_TYPE = U
NORAD_CAT_ID   = 67062
ELEMENT_SET_NO = 999
REV_AT_EPOCH   = 182
BSTAR          = .74037124E-4
MEAN_MOTION_DOT = .17E-6
MEAN_MOTION_DDOT = 0

CCSDS_OMM_VERS = 2.0
CREATION_DATE  = 
ORIGINATOR     = 

OBJECT_NAME    = HULIANWANG DIGUI-123
OBJECT_ID      = 2025-295E
CENTER_NAME    = EARTH
REF_FRAME      = TEME
TIME_SYSTEM    = UTC
MEAN_ELEMENT_THEORY = SGP/SGP4

EPOCH          = 2025-12-23T18:37:38.191872
MEAN_MOTION    = 14.25890271
ECCENTRICITY   = .00124733
INCLINATION    = 50.0059
RA_OF_ASC_NODE = 325.6275
ARG_OF_PERICENTER = 291.5304
MEAN_ANOMALY   = 68.4280

EPHEMERIS_TYPE = 0
CLASSIFICATION_TYPE = U
NORAD_CAT_ID   = 67063
ELEMENT_SET_NO = 999
REV_AT_EPOCH   = 169
BSTAR          = .64661609E-4
MEAN_MOTION_DOT = -.5E-7
MEAN_MOTION_DDOT = 0

CCSDS_OMM_VERS = 2.0
CREATION_DATE  = 
ORIGINATOR     = 

OBJECT_NAME    = HULIANWANG DIGUI-124
OBJECT_ID      = 2025-295F
CENTER_NAME    = EARTH
REF_FRAME      = TEME
TIME_SYSTEM    = UTC
MEAN_ELEMENT_THEORY = SGP/SGP4

EPOCH          = 2025-12-22T05:36:45.096192
MEAN_MOTION    = 14.25948838
ECCENTRICITY   = .00121422
INCLINATION    = 50.0035
RA_OF_ASC_NODE = 332.1235
ARG_OF_PERICENTER = 280.5756
MEAN_ANOMALY   = 79.3790

EPHEMERIS_TYPE = 0
CLASSIFICATION_TYPE = U
NORAD_CAT_ID   = 67064
ELEMENT_SET_NO = 999
REV_AT_EPOCH   = 147
BSTAR          = -.21789546E-3
MEAN_MOTION_DOT = -.684E-5
MEAN_MOTION_DDOT = 0

CCSDS_OMM_VERS = 2.0
CREATION_DATE  = 
ORIGINATOR     = 

OBJECT_NAME    = HULIANWANG DIGUI-125
OBJECT_ID      = 2025-295G
CENTER_NAME    = EARTH
REF_FRAME      = TEME
TIME_SYSTEM    = UTC
MEAN_ELEMENT_THEORY = SGP/SGP4

EPOCH          = 2025-12-24T03:01:26.356800
MEAN_MOTION    = 14.25956035
ECCENTRICITY   = .00122653
INCLINATION    = 50.0009
RA_OF_ASC_NODE = 324.1276
ARG_OF_PERICENTER = 293.4537
MEAN_ANOMALY   = 66.5087

EPHEMERIS_TYPE = 0
CLASSIFICATION_TYPE = U
NORAD_CAT_ID   = 67065
ELEMENT_SET_NO = 999
REV_AT_EPOCH   = 174
BSTAR          = .65028559E-4
MEAN_MOTION_DOT = -.4E-7
MEAN_MOTION_DDOT = 0

CCSDS_OMM_VERS = 2.0
CREATION_DATE  = 
ORIGINATOR     = 

OBJECT_NAME    = HULIANWANG DIGUI-126
OBJECT_ID      = 2025-295H
CENTER_NAME    = EARTH
REF_FRAME      = TEME
TIME_SYSTEM    = UTC
MEAN_ELEMENT_THEORY = SGP/SGP4

EPOCH          = 2025-12-24T16:26:54.676320
MEAN_MOTION    = 14.26099416
ECCENTRICITY   = .00114214
INCLINATION    = 50.0012
RA_OF_ASC_NODE = 321.7514
ARG_OF_PERICENTER = 292.7089
MEAN_ANOMALY   = 67.2617

EPHEMERIS_TYPE = 0
CLASSIFICATION_TYPE = U
NORAD_CAT_ID   = 67066
ELEMENT_SET_NO = 999
REV_AT_EPOCH   = 182
BSTAR          = .80653336E-4
MEAN_MOTION_DOT = .34E-6
MEAN_MOTION_DDOT = 0

CCSDS_OMM_VERS = 2.0
CREATION_DATE  = 
ORIGINATOR     = 

OBJECT_NAME    = HULIANWANG DIGUI-127
OBJECT_ID      = 2025-295J
CENTER_NAME    = EARTH
REF_FRAME      = TEME
TIME_SYSTEM    = UTC
MEAN_ELEMENT_THEORY = SGP/SGP4

EPOCH          = 2025-12-22T15:39:07.411968
MEAN_MOTION    = 14.26251195
ECCENTRICITY   = .00108509
INCLINATION    = 50.0053
RA_OF_ASC_NODE = 330.3407
ARG_OF_PERICENTER = 289.3117
MEAN_ANOMALY   = 70.6623

EPHEMERIS_TYPE = 0
CLASSIFICATION_TYPE = U
NORAD_CAT_ID   = 67067
ELEMENT_SET_NO = 999
REV_AT_EPOCH   = 153
BSTAR          = -.27534515E-3
MEAN_MOTION_DOT = -.825E-5
MEAN_MOTION_DDOT = 0

CCSDS_OMM_VERS = 2.0
CREATION_DATE  = 
ORIGINATOR     = 

OBJECT_NAME    = CZ-12 R/B
OBJECT_ID      = 2025-295K
CENTER_NAME    = EARTH
REF_FRAME      = TEME
TIME_SYSTEM    = UTC
MEAN_ELEMENT_THEORY = SGP/SGP4

EPOCH          = 2025-12-26T08:33:02.496096
MEAN_MOTION    = 14.41130432
ECCENTRICITY   = .0056901
INCLINATION    = 49.9942
RA_OF_ASC_NODE = 313.2422
ARG_OF_PERICENTER = 184.7305
MEAN_ANOMALY   = 175.3084

EPHEMERIS_TYPE = 0
CLASSIFICATION_TYPE = U
NORAD_CAT_ID   = 67068
ELEMENT_SET_NO = 999
REV_AT_EPOCH   = 207
BSTAR          = .39475E-4
MEAN_MOTION_DOT = -.38E-6
MEAN_MOTION_DDOT = 0

CCSDS_OMM_VERS = 2.0
CREATION_DATE  = 
ORIGINATOR     = 

OBJECT_NAME    = XIWANG-5 02
OBJECT_ID      = 2025-296A
CENTER_NAME    = EARTH
REF_FRAME      = TEME
TIME_SYSTEM    = UTC
MEAN_ELEMENT_THEORY = SGP/SGP4

EPOCH          = 2025-12-23T12:00:44.103744
MEAN_MOTION    = 15.16891516
ECCENTRICITY   = .00145566
INCLINATION    = 41.3523
RA_OF_ASC_NODE = 40.1941
ARG_OF_PERICENTER = 102.8792
MEAN_ANOMALY   = 257.3656

EPHEMERIS_TYPE = 0
CLASSIFICATION_TYPE = U
NORAD_CAT_ID   = 67069
ELEMENT_SET_NO = 999
REV_AT_EPOCH   = 159
BSTAR          = .60249038E-3
MEAN_MOTION_DOT = .11945E-3
MEAN_MOTION_DDOT = 0

CCSDS_OMM_VERS = 2.0
CREATION_DATE  = 
ORIGINATOR     = 

OBJECT_NAME    = DEAR-5
OBJECT_ID      = 2025-296B
CENTER_NAME    = EARTH
REF_FRAME      = TEME
TIME_SYSTEM    = UTC
MEAN_ELEMENT_THEORY = SGP/SGP4

EPOCH          = 2025-12-26T19:00:03.458016
MEAN_MOTION    = 15.16898273
ECCENTRICITY   = .0016603
INCLINATION    = 41.3552
RA_OF_ASC_NODE = 21.4129
ARG_OF_PERICENTER = 128.4176
MEAN_ANOMALY   = 231.8138

EPHEMERIS_TYPE = 0
CLASSIFICATION_TYPE = U
NORAD_CAT_ID   = 67070
ELEMENT_SET_NO = 999
REV_AT_EPOCH   = 208
BSTAR          = .32948E-3
MEAN_MOTION_DOT = .644E-4
MEAN_MOTION_DDOT = 0

CCSDS_OMM_VERS = 2.0
CREATION_DATE  = 
ORIGINATOR     = 

OBJECT_NAME    = RAISE-4
OBJECT_ID      = 2025-297B
CENTER_NAME    = EARTH
REF_FRAME      = TEME
TIME_SYSTEM    = UTC
MEAN_ELEMENT_THEORY = SGP/SGP4

EPOCH          = 2025-12-26T15:23:14.412192
MEAN_MOTION    = 15.07246496
ECCENTRICITY   = .00116773
INCLINATION    = 97.4853
RA_OF_ASC_NODE = 147.8154
ARG_OF_PERICENTER = 268.6462
MEAN_ANOMALY   = 91.3428

EPHEMERIS_TYPE = 0
CLASSIFICATION_TYPE = U
NORAD_CAT_ID   = 67073
ELEMENT_SET_NO = 999
REV_AT_EPOCH   = 188
BSTAR          = .39550952E-3
MEAN_MOTION_DOT = .591E-4
MEAN_MOTION_DDOT = 0

CCSDS_OMM_VERS = 2.0
CREATION_DATE  = 
ORIGINATOR     = 

OBJECT_NAME    = ELECTRON KICK STAGE R/B
OBJECT_ID      = 2025-297C
CENTER_NAME    = EARTH
REF_FRAME      = TEME
TIME_SYSTEM    = UTC
MEAN_ELEMENT_THEORY = SGP/SGP4

EPOCH          = 2025-12-26T07:23:54.373344
MEAN_MOTION    = 15.60623913
ECCENTRICITY   = .0187402
INCLINATION    = 97.4814
RA_OF_ASC_NODE = 148.4327
ARG_OF_PERICENTER = 220.2735
MEAN_ANOMALY   = 138.4516

EPHEMERIS_TYPE = 0
CLASSIFICATION_TYPE = U
NORAD_CAT_ID   = 67074
ELEMENT_SET_NO = 999
REV_AT_EPOCH   = 189
BSTAR          = .18067E-2
MEAN_MOTION_DOT = .363072E-2
MEAN_MOTION_DDOT = .38168E-4

CCSDS_OMM_VERS = 2.0
CREATION_DATE  = 
ORIGINATOR     = 

OBJECT_NAME    = STARLINK-36230
OBJECT_ID      = 2025-298A
CENTER_NAME    = EARTH
REF_FRAME      = TEME
TIME_SYSTEM    = UTC
MEAN_ELEMENT_THEORY = SGP/SGP4

EPOCH          = 2025-12-26T20:00:01.999008
MEAN_MOTION    = 15.74801580
ECCENTRICITY   = .0003676
INCLINATION    = 69.9988
RA_OF_ASC_NODE = 209.9062
ARG_OF_PERICENTER = 271.6530
MEAN_ANOMALY   = 12.4351

EPHEMERIS_TYPE = 0
CLASSIFICATION_TYPE = U
NORAD_CAT_ID   = 67075
ELEMENT_SET_NO = 999
REV_AT_EPOCH   = 324
BSTAR          = -.13266E-1
MEAN_MOTION_DOT = -.1731398E-1
MEAN_MOTION_DDOT = 0

